ONEWEB-0029             
1 45445U 20020X   25329.30460009 -.00000361  00000+0 -10545-2 0  9997
2 45445  87.8870  61.6613 0001824 106.8995 253.2333 13.11418861275939
ONEWEB-0068             
1 45446U 20020Y   25329.28836683 -.00000494  00000+0 -14305-2 0  9995
2 45446  87.8870  61.6537 0001829 107.7304 252.4024 13.11416270275877
ONEWEB-0046             
1 45447U 20020Z   25329.50891341 -.00000230  00000+0 -68363-3 0  9995
2 45447  87.8871  61.6178 0001657 111.9239 248.2065 13.11415638275913
ONEWEB-0063             
1 45448U 20020AA  25329.23253860  .00001622  00000+0  45400-2 0  9994
2 45448  87.8870  61.6701 0001423 104.5612 255.5673 13.11431319275964
ONEWEB-0019             
1 45449U 20020AB  25329.28255677 -.00000329  00000+0 -96490-3 0  9999
2 45449  87.8858  61.6726 0001807 102.8137 257.3193 13.11414911275817
ONEWEB-0094             
1 45450U 20020AC  25329.23838900 -.00001006  00000+0 -26251-2 0  9992
2 45450  87.9135  46.3890 0001856 102.6401 257.4938 13.17638895279453
ONEWEB-0087             
1 45451U 20020AD  25329.31888967  .00000531  00000+0  14635-2 0  9993
2 45451  87.8879  61.6099 0002039 109.4161 250.7188 13.11418055275863
ONEWEB-0082             
1 45452U 20020AE  25329.31563416  .00000468  00000+0  12839-2 0  9996
2 45452  87.8880  61.6361 0001987 108.2979 251.8365 13.11418385275958
ONEWEB-0050             
1 45453U 20020AF  25329.30658954  .00004622  00000+0  48501-3 0  9990
2 45453  88.9230 261.0218 0004132  33.0105 327.1381 14.89362275310023
ONEWEB-0034             
1 45454U 20020AG  25329.48941914  .00000498  00000+0  13686-2 0  9993
2 45454  87.8871  61.6175 0001773 103.8829 256.2496 13.11417583275897
ONEWEB-0060             
1 45455U 20020AH  25329.30799535  .00000105  00000+0  26127-3 0  9995
2 45455  87.8858  61.6723 0002758 115.8114 244.3299 13.11421398275827
ONEWEB-0086             
1 45456U 20020AJ  25329.28680926 -.00000483  00000+0 -13987-2 0  9996
2 45456  87.8866  61.6544 0002470  99.7287 260.4120 13.11416473275886
ONEWEB-0088             
1 45457U 20020AK  25329.49366073  .00000340  00000+0  92217-3 0  9998
2 45457  87.8882  61.5668 0001697 108.2772 251.8541 13.11414746275844
ONEWEB-0102             
1 47258U 20100A   25329.42908116 -.00000299  00000+0 -86733-3 0  9992
2 47258  87.8955  31.1656 0001802  94.6316 265.5018 13.12442347238003
ONEWEB-0109             
1 47259U 20100B   25329.43718753 -.00000405  00000+0 -11615-2 0  9995
2 47259  87.8958  31.1315 0001806  96.4773 263.6561 13.12443321237835
ONEWEB-0110             
1 47260U 20100C   25329.46314383  .00000249  00000+0  65545-3 0  9997
2 47260  87.8958  31.1099 0002080  99.4432 260.6932 13.12443116238007
ONEWEB-0111             
1 47261U 20100D   25329.41772775  .00000013  00000+0  13141-5 0  9992
2 47261  87.8964  31.1372 0001823  98.8067 261.3268 13.12441777237831
ONEWEB-0114             
1 47262U 20100E   25329.44853666 -.00000070  00000+0 -23056-3 0  9994
2 47262  87.8960  31.1255 0001638  91.0572 269.0744 13.12444988237794
ONEWEB-0117             
1 47263U 20100F   25329.44043205 -.00000267  00000+0 -77869-3 0  9994
2 47263  87.8958  31.1244 0001844  99.7726 260.3611 13.12444306237808
ONEWEB-0118             
1 47264U 20100G   25329.47288212  .00000488  00000+0  13202-2 0  9990
2 47264  87.8962  31.1175 0001464  98.7872 261.3422 13.12443281238001
ONEWEB-0119             
1 47265U 20100H   25329.11926222 -.00000254  00000+0 -74065-3 0  9990
2 47265  87.8956  31.2242 0001875  99.2519 260.8821 13.12442350237935
ONEWEB-0120             
1 47266U 20100J   25329.44706044 -.00000242  00000+0 -70692-3 0  9994
2 47266  87.8953  31.1600 0001731  98.1181 262.0144 13.12442903238009
ONEWEB-0121             
1 47267U 20100K   25329.43556606 -.00000445  00000+0 -12715-2 0  9997
2 47267  87.8959  31.1292 0001968 101.3500 258.7850 13.12443249237916
ONEWEB-0122             
1 47268U 20100L   25329.43056456 -.00000335  00000+0 -96709-3 0  9990
2 47268  87.8958  31.1328 0001916  96.2981 263.8366 13.12442685237826
ONEWEB-0123             
1 47269U 20100M   25329.12088622 -.00000259  00000+0 -75558-3 0  9991
2 47269  87.8958  31.2219 0001716 102.4550 257.6771 13.12441957237920
ONEWEB-0124             
1 47270U 20100N   25329.18577156  .00000072  00000+0  16598-3 0  9994
2 47270  87.8960  31.2133 0001880 105.5890 254.5446 13.12441707237819
ONEWEB-0125             
1 47271U 20100P   25329.16306312  .00000457  00000+0  12354-2 0  9999
2 47271  87.8960  31.1793 0001674 109.5777 250.5532 13.12443669237877
ONEWEB-0126             
1 47272U 20100Q   25329.26052801  .00000141  00000+0  35729-3 0  9994
2 47272  87.8962  31.1839 0001746  97.1597 262.9730 13.12441490237959
ONEWEB-0127             
1 47273U 20100R   25329.45503532  .00000025  00000+0  32818-4 0  9996
2 47273  87.8953  31.1563 0001798  96.0095 264.1239 13.12443940238009
ONEWEB-0128             
1 47274U 20100S   25329.47774899  .00000430  00000+0  11592-2 0  9999
2 47274  87.8950  31.1694 0002045  96.7374 263.3987 13.12442698238027
ONEWEB-0129             
1 47275U 20100T   25329.45665182  .00000130  00000+0  32476-3 0  9994
2 47275  87.8962  31.1252 0001790  63.2807 296.8504 13.12444257237957
ONEWEB-0130             
1 47276U 20100U   25329.40799970  .00000355  00000+0  95278-3 0  9991
2 47276  87.8962  31.1305 0001909  97.5607 262.5738 13.12441914237919
ONEWEB-0131             
1 47277U 20100V   25329.40475740  .00000432  00000+0  11643-2 0  9997
2 47277  87.8962  31.1612 0001868 101.0715 259.0624 13.12442141237958
ONEWEB-0132             
1 47278U 20100W   25329.43394369 -.00000303  00000+0 -87651-3 0  9990
2 47278  87.8958  31.1569 0001873  99.5765 260.5575 13.12443284237857
ONEWEB-0133             
1 47279U 20100X   25329.22131909 -.00000044  00000+0 -15720-3 0  9997
2 47279  87.8955  31.1619 0001966 100.4747 259.6604 13.12444697237981
ONEWEB-0134             
1 47280U 20100Y   25329.41935147  .00000018  00000+0  13778-4 0  9997
2 47280  87.8963  31.1168 0002025  94.3880 265.7480 13.12442310237987
ONEWEB-0135             
1 47281U 20100Z   25329.23766204  .00002123  00000+0  58637-2 0  9994
2 47281  87.8957  31.1920 0002060  95.5208 264.6155 13.12458804237985
ONEWEB-0136             
1 47282U 20100AA  25329.40962116  .00000211  00000+0  55194-3 0  9996
2 47282  87.8962  31.1279 0002059  90.4551 269.6813 13.12441761237937
ONEWEB-0137             
1 47283U 20100AB  25329.13872502 -.00000241  00000+0 -70588-3 0  9995
2 47283  87.8962  31.1875 0001598  98.9869 261.1440 13.12444071237808
ONEWEB-0138             
1 47284U 20100AC  25329.19388116 -.00000147  00000+0 -44408-3 0  9992
2 47284  87.8963  31.1859 0001912  95.5727 264.5620 13.12442042237890
ONEWEB-0139             
1 47285U 20100AD  25329.46166604  .00000322  00000+0  85935-3 0  9992
2 47285  87.8958  31.1218 0001806  99.4774 260.6559 13.12445414238009
ONEWEB-0140             
1 47286U 20100AE  25329.41610919  .00000560  00000+0  15218-2 0  9991
2 47286  87.8966  31.1170 0002167  98.0133 262.1242 13.12445134237960
ONEWEB-0141             
1 47287U 20100AF  25329.46138968  .00000309  00000+0  82393-3 0  9996
2 47287  87.8953  31.1187 0001466 100.2585 259.8709 13.12444626237958
ONEWEB-0142             
1 47288U 20100AG  25329.45029512  .00000855  00000+0  23420-2 0  9991
2 47288  87.8963  31.1436 0001412  92.6711 267.4579 13.12452615237949
ONEWEB-0143             
1 47289U 20100AH  25329.45989293  .00000267  00000+0  70817-3 0  9993
2 47289  87.8957  31.1366 0001796 100.1260 260.0071 13.12445721237928
ONEWEB-0144             
1 47290U 20100AJ  25329.12737388 -.00000302  00000+0 -87591-3 0  9994
2 47290  87.8959  31.1729 0001861  88.5650 271.5692 13.12443785237801
ONEWEB-0145             
1 47291U 20100AK  25329.40313520  .00000462  00000+0  12479-2 0  9991
2 47291  87.8961  31.1551 0001804  98.2695 261.8638 13.12442137238030
ONEWEB-0146             
1 47292U 20100AL  25329.47612928  .00000402  00000+0  10825-2 0  9990
2 47292  87.8958  31.1273 0002009 108.9140 251.2207 13.12442250237951
ONEWEB-0147             
1 47293U 20100AM  25329.44205183 -.00000314  00000+0 -90856-3 0  9996
2 47293  87.8961  31.1120 0002034  94.2071 265.9290 13.12443698237844
ONEWEB-0115             
1 48042U 21025A   25329.47683554  .00000221  00000+0  57077-3 0  9994
2 48042  87.9003   0.7052 0001811  95.7944 264.3391 13.13469340226855
ONEWEB-0152             
1 48043U 21025B   25329.49037465 -.00000145  00000+0 -43071-3 0  9997
2 48043  87.8993   0.7107 0001911  97.0858 263.0488 13.13468946226814
ONEWEB-0153             
1 48044U 21025C   25329.16366117  .00000044  00000+0  86897-4 0  9991
2 48044  87.8997   0.7801 0001822  95.7827 264.3510 13.13472109226762
ONEWEB-0154             
1 48045U 21025D   25329.38880955  .00000350  00000+0  92426-3 0  9991
2 48045  87.8997   0.7318 0001885  92.8325 267.3020 13.13469878226753
ONEWEB-0116             
1 48046U 21025E   25329.12302651 -.00000292  00000+0 -83349-3 0  9997
2 48046  87.9000   0.7686 0001898  98.2771 261.8573 13.13469937226867
ONEWEB-0150             
1 48047U 21025F   25329.48021255  .00000178  00000+0  45282-3 0  9990
2 48047  87.9003   0.6932 0001623  96.5049 263.6265 13.13469419226806
ONEWEB-0107             
1 48048U 21025G   25329.17720190  .00000098  00000+0  23364-3 0  9999
2 48048  87.9003   0.7501 0001711  85.8653 274.2672 13.13469167226743
ONEWEB-0101             
1 48049U 21025H   25329.36849005  .00000014  00000+0  45210-5 0  9992
2 48049  87.8991   0.7466 0001878  90.5872 269.5472 13.13470682226748
ONEWEB-0113             
1 48050U 21025J   25329.46773860  .00000310  00000+0  80691-3 0  9999
2 48050  87.8999   0.6581 0001780 103.2794 256.8534 13.13983905226859
ONEWEB-0112             
1 48051U 21025K   25329.48698841  .00000009  00000+0 -10990-4 0  9999
2 48051  87.9002   0.6858 0001754  95.6393 264.4936 13.13469562226852
